#aV2020  4  2  0  0  0.00000000     288 DD+AD WGS84 FIT  NGA
## 2099 345600.00000000   300.00000000 58941 0.0000000000000
+   32     1  2  3  4  5  6  7  8  9 10 11 12 13 14 15 16 17
+         18 19 20 21 22 23 24 25 26 27 28 29 30 31 32  0  0
+          0  0  0  0  0  0  0  0  0  0  0  0  0  0  0  0  0
+          0  0  0  0  0  0  0  0  0  0  0  0  0  0  0  0  0
+          0  0  0  0  0  0  0  0  0  0  0  0  0  0  0  0  0
++         2  2  2  2  2  2  2  2  2  2  2  2  2  2  2  2  2
++         2  2  2  2  2  2  2  2  2  2  2  2  2  2  2  0  0
++         0  0  0  0  0  0  0  0  0  0  0  0  0  0  0  0  0
++         0  0  0  0  0  0  0  0  0  0  0  0  0  0  0  0  0
++         0  0  0  0  0  0  0  0  0  0  0  0  0  0  0  0  0
%c cc cc ccc ccc cccc cccc cccc cccc ccccc ccccc ccccc ccccc
%c cc cc ccc ccc cccc cccc cccc cccc ccccc ccccc ccccc ccccc
%f  0.0000000  0.000000000  0.00000000000  0.000000000000000
%f  0.0000000  0.000000000  0.00000000000  0.000000000000000
%i    0    0    0    0      0      0      0      0         0
%i    0    0    0    0      0      0      0      0         0
/*      NGA, ST. LOUIS,MO.                                  
/*   EPHEMERIS COMPUTED FROM 2 DAYS OF DATA                 
/*   EPOCHA v5 SMOOTHER                                     
/*   G1762 IERS2010 SATAF SATAPC                            
*  2020  4  2 14 50  0.00000000
P  1 -14072.435838 -13842.140647 -18142.534661   -345.934214                    
V  1  22414.407395   1476.786840 -18404.764584     -0.117473                    
P  2 -10136.136524  14162.357922  20678.171928   -432.616238                    
V  2 -24808.825183  -1850.395599 -11312.961073     -0.065639                    
P  3 -13025.421501 -22889.238146   3781.655310   -134.466839                    
V  3    379.705046  -5480.898542 -31302.280179     -0.105222                    
P  4  -7090.939297 -14737.574760  20932.764762    -70.731329                    
V  4  16927.928898 -20486.621816  -8719.880323     -0.051934                    
P  5  -1151.759272  21856.241108  14773.234549    -10.159379                    
V  5 -10476.636945 -16149.716680  23063.206210     -0.006507                    
P  6 -20681.169905   7846.572838  14792.741332   -244.377125                    
V  6 -18364.544333  -3535.680490 -23841.904002     -0.080290                    
P  7 -25850.876903  -6014.532424   4175.101965   -249.624117                    
V  7   5135.874074  -1970.012301  30697.314159     -0.085960                    
P  8   2520.664385 -21556.280515 -15112.916377    -29.267460                    
V  8  12754.449303 -14636.122141  23218.324564     -0.013116                    
P  9 -15474.071805  -4116.006173  21143.200683   -189.544468                    
V  9  15014.574276 -22436.378179   6587.142219     -0.079178                    
P 10  15408.828927  -1997.588536 -21481.315534   -297.443066                    
V 10  10885.046298  25186.336580   5216.701320     -0.122635                    
P 11  -2970.381231 -16396.995277 -21198.660612   -316.528879                    
V 11  24432.203748  -8849.475742   3197.655525      0.107681                    
P 12  10192.181818  24542.990833   1789.342500    133.786022                    
V 12  -1118.178410   3111.779728 -31932.045138     -0.043005                    
P 13 -11091.303698  21918.954025 -10106.840190     -1.032109                    
V 13 -10387.891464   7631.488903  28368.944665      0.029740                    
P 14  18690.248066 -18395.157682  -3168.947090    -22.241985                    
V 14   -639.832913   5329.776228 -31539.020784      0.025271                    
P 15    809.751971  21634.074565 -15441.620179   -240.730752                    
V 15 -12115.122195  15298.067061  21605.775155      0.026099                    
P 16   2528.902683 -21978.621721  14139.187894   -142.012212                    
V 16   7939.993336  16802.623719  24768.219455     -0.043451                    
P 17 -20135.464870  11850.196547 -12165.182145    242.321549                    
V 17   8741.489994 -13651.386023 -26886.688976      0.062335                    
P 18  23455.842573   9087.198231   8583.552667    141.759039                    
V 18 -11121.042161   1074.891310  29217.362682      0.141309                    
P 19 -20015.803411  16588.710589  -5725.339916   -177.459433                    
V 19   3087.048711  -6462.618255 -31137.062192      0.051146                    
P 20  19373.521364   8706.456401 -16155.216195    527.842711                    
V 20   8710.639780  18547.361171  20331.736466     -0.000162                    
P 21  25832.312029   4140.414805   4391.139361    -19.496899                    
V 21  -4780.228821   2996.401515  31094.379348      0.050720                    
P 22  -9314.775479 -24430.199644  -4819.041593   -785.205757                    
V 22   6250.546271   3868.632974 -30168.627383      0.003418                    
P 23 -10108.832758 -12635.777125  21400.082932   -125.188308                    
V 23  15631.902258 -21295.138737  -5685.897494      0.029083                    
P 24  12555.736161  14399.492208 -18788.332211    -11.155427                    
V 24 -23457.671899    439.389908 -15137.535801     -0.004900                    
P 25  16325.507635  17728.191493  11222.760649     -5.639246                    
V 25   3913.801462  14135.583362 -27177.146850      0.022634                    
P 26   9238.917737 -14357.531657  20256.351250    179.719549                    
V 26  12379.929155  22786.590403  10706.192245      0.074450                    
P 27  11469.411046 -22959.128733  -6238.544641   -255.796680                    
V 27   6544.480457  -4900.875910  31039.046952     -0.105965                    
P 28 -14401.142747   2740.580599 -21558.618920    728.399582                    
V 28  -8945.047177 -27322.055402   2573.466533     -0.027448                    
P 29  13151.122309   6948.398589  21966.811223    -71.439019                    
V 29 -17745.564023  21545.960363   3783.972816     -0.091171                    
P 30 -25659.315052   1596.267133  -7056.427973   -189.409184                    
V 30  -8451.398683  -4378.185690  29394.804316     -0.085719                    
P 31  19485.640909  -8772.921703  16015.831794    -33.428122                    
V 31  19838.167516   4349.486180 -21252.536783     -0.024884                    
P 32  19682.391488 -13068.322822 -11915.437773    250.633349                    
V 32  -6817.160618  13946.981462 -26531.084967      0.086835                    
EOF
